[{"OBJECT_NAME":"BUCCANEER MM","OBJECT_ID":"2025-052AM","EPOCH":"2026-03-09T22:25:46.269120","MEAN_MOTION":14.94080951,"ECCENTRICITY":0.00039773,"INCLINATION":97.6989,"RA_OF_ASC_NODE":321.9491,"ARG_OF_PERICENTER":161.9633,"MEAN_ANOMALY":198.1729,"EPHEMERIS_TYPE":0,"CLASSIFICATION_TYPE":"U","NORAD_CAT_ID":63245,"ELEMENT_SET_NO":999,"REV_AT_EPOCH":5377,"BSTAR":0.0003752761,"MEAN_MOTION_DOT":3.953e-5,"MEAN_MOTION_DDOT":0},{"OBJECT_NAME":"FENGYUN 1C DEB","OBJECT_ID":"1999-025BYB","EPOCH":"2026-03-09T05:05:13.521120","MEAN_MOTION":14.56393574,"ECCENTRICITY":0.02857078,"INCLINATION":98.2326,"RA_OF_ASC_NODE":339.505,"ARG_OF_PERICENTER":237.0918,"MEAN_ANOMALY":120.25,"EPHEMERIS_TYPE":0,"CLASSIFICATION_TYPE":"U","NORAD_CAT_ID":31536,"ELEMENT_SET_NO":999,"REV_AT_EPOCH":97515,"BSTAR":0.0011428862,"MEAN_MOTION_DOT":8.819e-5,"MEAN_MOTION_DDOT":0}]
